0 METEOR 2-7 DEB
1 36972U 81043T   13280.59678137  .00013938  00000-0  25930-2 0  3442
2 36972 081.2438 021.5182 0034738 241.2620 118.5089 14.64651090511304
0 METEOR 2-7 DEB
1 36972U 81043T   13281.55319111  .00015233  00000-0  28317-2 0  3456
2 36972 081.2435 020.5009 0034906 238.4744 121.3047 14.64679239511446
0 METEOR 2-7 DEB
1 36972U 81043T   13283.53424498  .00024496  00000-0  45399-2 0  3462
2 36972 081.2435 018.3937 0035158 232.9740 126.8244 14.64765499511731
0 METEOR 2-7 DEB
1 36972U 81043T   13283.53425572  .00039974  00000-0  74393-2 0  3470
2 36972 081.2430 018.3921 0034515 231.6185 128.2404 14.64762418511736
0 METEOR 2-7 DEB
1 36972U 81043T   13284.96873666  .00018187  00000-0  33685-2 0  3471
2 36972 081.2436 016.8673 0035408 228.9584 130.8556 14.64819589511945
0 METEOR 2-7 DEB
1 36972U 81043T   13286.67640350  .00018012  00000-0  33315-2 0  3481
2 36972 081.2432 015.0486 0035787 224.0236 135.8114 14.64872075512197
0 METEOR 2-7 DEB
1 36972U 81043T   13289.20361269  .00023957  00000-0  44167-2 0  3494
2 36972 081.2440 012.3597 0035856 216.9760 142.8970 14.64986454512564
0 METEOR 2-7 DEB
1 36972U 81043T   13290.91107646  .00021887  00000-0  40296-2 0  3502
2 36972 081.2442 010.5440 0035886 212.2214 147.6795 14.65058499512815
0 METEOR 2-7 DEB
1 36972U 81043T   13291.93551506  .00019619  00000-0  36096-2 0  3517
2 36972 081.2443 009.4538 0035975 209.5274 150.3897 14.65096847512964
0 METEOR 2-7 DEB
1 36972U 81043T   13294.18918763  .00022243  00000-0  40838-2 0  3526
2 36972 081.2437 007.0545 0036042 203.0806 156.8778 14.65175722513291
